[{"OBJECT_NAME":"STARLINK-33735","OBJECT_ID":"2025-070Q","EPOCH":"2026-03-09T12:44:41.224416","MEAN_MOTION":15.27594983,"ECCENTRICITY":0.00016853,"INCLINATION":42.9978,"RA_OF_ASC_NODE":260.5626,"ARG_OF_PERICENTER":278.6437,"MEAN_ANOMALY":81.4224,"EPHEMERIS_TYPE":0,"CLASSIFICATION_TYPE":"U","NORAD_CAT_ID":63474,"ELEMENT_SET_NO":999,"REV_AT_EPOCH":5295,"BSTAR":0.0010211458,"MEAN_MOTION_DOT":0.00027957,"MEAN_MOTION_DDOT":0},{"OBJECT_NAME":"ELECTRON KICK STAGE R\/B","OBJECT_ID":"2024-077D","EPOCH":"2026-03-09T23:22:03.772128","MEAN_MOTION":14.57371822,"ECCENTRICITY":0.03475139,"INCLINATION":97.3266,"RA_OF_ASC_NODE":78.5056,"ARG_OF_PERICENTER":202.0113,"MEAN_ANOMALY":156.5853,"EPHEMERIS_TYPE":0,"CLASSIFICATION_TYPE":"U","NORAD_CAT_ID":59590,"ELEMENT_SET_NO":999,"REV_AT_EPOCH":9944,"BSTAR":0.00037103128,"MEAN_MOTION_DOT":3.845e-5,"MEAN_MOTION_DDOT":0}]
